IRIDIUM 63              
1 25286U 98021B   25240.55056837  .00000521  00000+0  17056-3 0  9994
2 25286  86.3947  51.7502 0002282  86.9625 273.1834 14.36590679434236
IRIDIUM 69              
1 25319U 98026A   25240.54931111  .00000567  00000+0  17039-3 0  9993
2 25319  86.3923  64.8208 0004004 118.7205 241.4397 14.41024289433480
IRIDIUM 71              
1 25320U 98026B   25240.54681813  .00000478  00000+0  14191-3 0  9993
2 25320  86.3929  59.5001 0002237 147.2019 212.9320 14.41206406434018
IRIDIUM 73              
1 25344U 98032C   25240.43502873  .00000789  00000+0  19134-3 0  9999
2 25344  86.4445  16.1212 0002867  95.9029 264.2504 14.51785108441047
IRIDIUM 82              
1 25467U 98051A   25240.58134166  .00032953  00000+0  85741-3 0  9993
2 25467  86.3607  74.0401 0080305  22.6951 337.7817 15.35434598435053
